ONEWEB-0311             
1 49097U 21075Y   26065.58197786  .00000064  00000+0  13251-3 0  9998
2 49097  87.9155  26.2316 0001747  67.5757 292.5560 13.17651672220116
ONEWEB-0312             
1 49098U 21075Z   26065.90089225  .00000021  00000+0  20502-4 0  9994
2 49098  87.9147  26.1864 0002070  72.5595 287.5763 13.17649451220134
ONEWEB-0313             
1 49099U 21075AA  26065.90582601  .00000023  00000+0  26546-4 0  9997
2 49099  87.9148  26.1914 0001851  77.1807 282.9532 13.17648868220128
ONEWEB-0314             
1 49100U 21075AB  26065.34065139  .00000080  00000+0  17212-3 0  9992
2 49100  87.9154  26.2665 0002087  72.0234 288.1125 13.17649953220023
ONEWEB-0315             
1 49101U 21075AC  26066.12694620  .00000271  00000+0  71932-3 0  9994
2 49101  87.9006  10.8985 0001601  67.8582 292.2716 13.12442694221787
ONEWEB-0316             
1 49102U 21075AD  26066.18085338 -.00000045  00000+0 -14657-3 0  9993
2 49102  87.9239 355.7212 0001773  76.1812 283.9518 13.18683883223769
ONEWEB-0317             
1 49103U 21075AE  26065.90162978  .00000302  00000+0  80487-3 0  9997
2 49103  87.9005  10.9653 0002350  94.2216 265.9181 13.12443236221776
ONEWEB-0318             
1 49104U 21075AF  26066.17756427  .00000108  00000+0  24237-3 0  9991
2 49104  87.9252 355.7142 0001675  70.9347 289.1966 13.18685537223723
ONEWEB-0319             
1 49105U 21075AG  26065.81146050 -.00000004  00000+0 -43657-4 0  9992
2 49105  87.9147  26.1982 0001543  64.0938 296.0352 13.17649210220126
ONEWEB-0323             
1 49106U 21075AH  26065.80674566 -.00000240  00000+0 -70244-3 0  9993
2 49106  87.9008  10.9657 0001868  57.8461 302.2849 13.12442669221120
ONEWEB-0329             
1 49107U 21075AJ  26066.12363544  .00000097  00000+0  21601-3 0  9992
2 49107  87.9141  26.1364 0001898  75.5549 284.5793 13.17648867220144
ONEWEB-0330             
1 49108U 21075AK  26066.12457406 -.00008533  00000+0 -22052-1 0  9998
2 49108  87.9146  26.1443 0002126  81.8313 278.3059 13.17579873220182
ONEWEB-0292             
1 49186U 21083A   26066.16375461 -.00000176  00000+0 -51734-3 0  9993
2 49186  87.9027 340.5430 0001580  71.9323 288.1978 13.13472493217539
ONEWEB-0303             
1 49187U 21083B   26066.17427206 -.00000004  00000+0 -42604-4 0  9997
2 49187  87.9252 355.7175 0001707  72.8752 287.2567 13.18686140216535
ONEWEB-0306             
1 49188U 21083C   26066.16437326  .00000127  00000+0  28881-3 0  9995
2 49188  87.9251 355.7028 0001911  83.7268 276.4081 13.18686534216574
ONEWEB-0307             
1 49189U 21083D   26066.15783397 -.00000078  00000+0 -24738-3 0  9991
2 49189  87.9028 340.5333 0001744  77.6639 282.4686 13.13469411217539
ONEWEB-0320             
1 49190U 21083E   26066.17760821  .00000147  00000+0  34220-3 0  9994
2 49190  87.9243 355.7259 0001828  78.2726 281.8610 13.18134234216538
