[{"OBJECT_NAME":"ONEWEB-0311","OBJECT_ID":"2021-075Y","EPOCH":"2026-03-06T13:58:02.887104","MEAN_MOTION":13.17651672,"ECCENTRICITY":0.00017479,"INCLINATION":87.9155,"RA_OF_ASC_NODE":26.2316,"ARG_OF_PERICENTER":67.5757,"MEAN_ANOMALY":292.556,"EPHEMERIS_TYPE":0,"CLASSIFICATION_TYPE":"U","NORAD_CAT_ID":49097,"ELEMENT_SET_NO":999,"REV_AT_EPOCH":22011,"BSTAR":0.00013251034,"MEAN_MOTION_DOT":6.4e-7,"MEAN_MOTION_DDOT":0},{"OBJECT_NAME":"ONEWEB-0312","OBJECT_ID":"2021-075Z","EPOCH":"2026-03-06T21:37:17.090400","MEAN_MOTION":13.17649451,"ECCENTRICITY":0.000207,"INCLINATION":87.9147,"RA_OF_ASC_NODE":26.1864,"ARG_OF_PERICENTER":72.5595,"MEAN_ANOMALY":287.5763,"EPHEMERIS_TYPE":0,"CLASSIFICATION_TYPE":"U","NORAD_CAT_ID":49098,"ELEMENT_SET_NO":999,"REV_AT_EPOCH":22013,"BSTAR":2.0502e-5,"MEAN_MOTION_DOT":2.1e-7,"MEAN_MOTION_DDOT":0},{"OBJECT_NAME":"ONEWEB-0313","OBJECT_ID":"2021-075AA","EPOCH":"2026-03-06T21:44:23.367264","MEAN_MOTION":13.17648868,"ECCENTRICITY":0.0001851,"INCLINATION":87.9148,"RA_OF_ASC_NODE":26.1914,"ARG_OF_PERICENTER":77.1807,"MEAN_ANOMALY":282.9532,"EPHEMERIS_TYPE":0,"CLASSIFICATION_TYPE":"U","NORAD_CAT_ID":49099,"ELEMENT_SET_NO":999,"REV_AT_EPOCH":22012,"BSTAR":2.6546e-5,"MEAN_MOTION_DOT":2.3e-7,"MEAN_MOTION_DDOT":0},{"OBJECT_NAME":"ONEWEB-0314","OBJECT_ID":"2021-075AB","EPOCH":"2026-03-06T08:10:32.280096","MEAN_MOTION":13.17649953,"ECCENTRICITY":0.00020871,"INCLINATION":87.9154,"RA_OF_ASC_NODE":26.2665,"ARG_OF_PERICENTER":72.0234,"MEAN_ANOMALY":288.1125,"EPHEMERIS_TYPE":0,"CLASSIFICATION_TYPE":"U","NORAD_CAT_ID":49100,"ELEMENT_SET_NO":999,"REV_AT_EPOCH":22002,"BSTAR":0.00017211589,"MEAN_MOTION_DOT":8.0e-7,"MEAN_MOTION_DDOT":0},{"OBJECT_NAME":"ONEWEB-0315","OBJECT_ID":"2021-075AC","EPOCH":"2026-03-07T03:02:48.151680","MEAN_MOTION":13.12442694,"ECCENTRICITY":0.0001601,"INCLINATION":87.9006,"RA_OF_ASC_NODE":10.8985,"ARG_OF_PERICENTER":67.8582,"MEAN_ANOMALY":292.2716,"EPHEMERIS_TYPE":0,"CLASSIFICATION_TYPE":"U","NORAD_CAT_ID":49101,"ELEMENT_SET_NO":999,"REV_AT_EPOCH":22178,"BSTAR":0.00071932,"MEAN_MOTION_DOT":2.71e-6,"MEAN_MOTION_DDOT":0},{"OBJECT_NAME":"ONEWEB-0316","OBJECT_ID":"2021-075AD","EPOCH":"2026-03-07T04:20:25.732032","MEAN_MOTION":13.18683883,"ECCENTRICITY":0.0001773,"INCLINATION":87.9239,"RA_OF_ASC_NODE":355.7212,"ARG_OF_PERICENTER":76.1812,"MEAN_ANOMALY":283.9518,"EPHEMERIS_TYPE":0,"CLASSIFICATION_TYPE":"U","NORAD_CAT_ID":49102,"ELEMENT_SET_NO":999,"REV_AT_EPOCH":22376,"BSTAR":-0.00014657,"MEAN_MOTION_DOT":-4.5e-7,"MEAN_MOTION_DDOT":0},{"OBJECT_NAME":"ONEWEB-0317","OBJECT_ID":"2021-075AE","EPOCH":"2026-03-06T21:38:20.812992","MEAN_MOTION":13.12443236,"ECCENTRICITY":0.000235,"INCLINATION":87.9005,"RA_OF_ASC_NODE":10.9653,"ARG_OF_PERICENTER":94.2216,"MEAN_ANOMALY":265.9181,"EPHEMERIS_TYPE":0,"CLASSIFICATION_TYPE":"U","NORAD_CAT_ID":49103,"ELEMENT_SET_NO":999,"REV_AT_EPOCH":22177,"BSTAR":0.00080487,"MEAN_MOTION_DOT":3.02e-6,"MEAN_MOTION_DDOT":0},{"OBJECT_NAME":"ONEWEB-0318","OBJECT_ID":"2021-075AF","EPOCH":"2026-03-07T04:15:41.552928","MEAN_MOTION":13.18685537,"ECCENTRICITY":0.0001675,"INCLINATION":87.9252,"RA_OF_ASC_NODE":355.7142,"ARG_OF_PERICENTER":70.9347,"MEAN_ANOMALY":289.1966,"EPHEMERIS_TYPE":0,"CLASSIFICATION_TYPE":"U","NORAD_CAT_ID":49104,"ELEMENT_SET_NO":999,"REV_AT_EPOCH":22372,"BSTAR":0.00024237,"MEAN_MOTION_DOT":1.08e-6,"MEAN_MOTION_DDOT":0},{"OBJECT_NAME":"ONEWEB-0319","OBJECT_ID":"2021-075AG","EPOCH":"2026-03-06T19:28:30.187200","MEAN_MOTION":13.1764921,"ECCENTRICITY":0.0001543,"INCLINATION":87.9147,"RA_OF_ASC_NODE":26.1982,"ARG_OF_PERICENTER":64.0938,"MEAN_ANOMALY":296.0352,"EPHEMERIS_TYPE":0,"CLASSIFICATION_TYPE":"U","NORAD_CAT_ID":49105,"ELEMENT_SET_NO":999,"REV_AT_EPOCH":22012,"BSTAR":-4.3657e-5,"MEAN_MOTION_DOT":-4.0e-8,"MEAN_MOTION_DDOT":0},{"OBJECT_NAME":"ONEWEB-0323","OBJECT_ID":"2021-075AH","EPOCH":"2026-03-06T19:21:42.825024","MEAN_MOTION":13.12442669,"ECCENTRICITY":0.0001868,"INCLINATION":87.9008,"RA_OF_ASC_NODE":10.9657,"ARG_OF_PERICENTER":57.8461,"MEAN_ANOMALY":302.2849,"EPHEMERIS_TYPE":0,"CLASSIFICATION_TYPE":"U","NORAD_CAT_ID":49106,"ELEMENT_SET_NO":999,"REV_AT_EPOCH":22112,"BSTAR":-0.00070244,"MEAN_MOTION_DOT":-2.4e-6,"MEAN_MOTION_DDOT":0},{"OBJECT_NAME":"ONEWEB-0329","OBJECT_ID":"2021-075AJ","EPOCH":"2026-03-07T02:58:02.102016","MEAN_MOTION":13.17648867,"ECCENTRICITY":0.0001898,"INCLINATION":87.9141,"RA_OF_ASC_NODE":26.1364,"ARG_OF_PERICENTER":75.5549,"MEAN_ANOMALY":284.5793,"EPHEMERIS_TYPE":0,"CLASSIFICATION_TYPE":"U","NORAD_CAT_ID":49107,"ELEMENT_SET_NO":999,"REV_AT_EPOCH":22014,"BSTAR":0.00021601,"MEAN_MOTION_DOT":9.7e-7,"MEAN_MOTION_DDOT":0},{"OBJECT_NAME":"ONEWEB-0330","OBJECT_ID":"2021-075AK","EPOCH":"2026-03-07T02:59:23.198784","MEAN_MOTION":13.17579873,"ECCENTRICITY":0.0002126,"INCLINATION":87.9146,"RA_OF_ASC_NODE":26.1443,"ARG_OF_PERICENTER":81.8313,"MEAN_ANOMALY":278.3059,"EPHEMERIS_TYPE":0,"CLASSIFICATION_TYPE":"U","NORAD_CAT_ID":49108,"ELEMENT_SET_NO":999,"REV_AT_EPOCH":22018,"BSTAR":-0.022052,"MEAN_MOTION_DOT":-8.533e-5,"MEAN_MOTION_DDOT":0},{"OBJECT_NAME":"ONEWEB-0292","OBJECT_ID":"2021-083A","EPOCH":"2026-03-07T03:55:48.398304","MEAN_MOTION":13.13472493,"ECCENTRICITY":0.000158,"INCLINATION":87.9027,"RA_OF_ASC_NODE":340.543,"ARG_OF_PERICENTER":71.9323,"MEAN_ANOMALY":288.1978,"EPHEMERIS_TYPE":0,"CLASSIFICATION_TYPE":"U","NORAD_CAT_ID":49186,"ELEMENT_SET_NO":999,"REV_AT_EPOCH":21753,"BSTAR":-0.00051734,"MEAN_MOTION_DOT":-1.76e-6,"MEAN_MOTION_DDOT":0},{"OBJECT_NAME":"ONEWEB-0303","OBJECT_ID":"2021-083B","EPOCH":"2026-03-07T04:10:57.105984","MEAN_MOTION":13.1868614,"ECCENTRICITY":0.0001707,"INCLINATION":87.9252,"RA_OF_ASC_NODE":355.7175,"ARG_OF_PERICENTER":72.8752,"MEAN_ANOMALY":287.2567,"EPHEMERIS_TYPE":0,"CLASSIFICATION_TYPE":"U","NORAD_CAT_ID":49187,"ELEMENT_SET_NO":999,"REV_AT_EPOCH":21653,"BSTAR":-4.2604e-5,"MEAN_MOTION_DOT":-4.0e-8,"MEAN_MOTION_DDOT":0},{"OBJECT_NAME":"ONEWEB-0306","OBJECT_ID":"2021-083C","EPOCH":"2026-03-07T03:56:41.849664","MEAN_MOTION":13.18686534,"ECCENTRICITY":0.0001911,"INCLINATION":87.9251,"RA_OF_ASC_NODE":355.7028,"ARG_OF_PERICENTER":83.7268,"MEAN_ANOMALY":276.4081,"EPHEMERIS_TYPE":0,"CLASSIFICATION_TYPE":"U","NORAD_CAT_ID":49188,"ELEMENT_SET_NO":999,"REV_AT_EPOCH":21657,"BSTAR":0.00028881,"MEAN_MOTION_DOT":1.27e-6,"MEAN_MOTION_DDOT":0},{"OBJECT_NAME":"ONEWEB-0307","OBJECT_ID":"2021-083D","EPOCH":"2026-03-07T03:47:16.855008","MEAN_MOTION":13.13469411,"ECCENTRICITY":0.0001744,"INCLINATION":87.9028,"RA_OF_ASC_NODE":340.5333,"ARG_OF_PERICENTER":77.6639,"MEAN_ANOMALY":282.4686,"EPHEMERIS_TYPE":0,"CLASSIFICATION_TYPE":"U","NORAD_CAT_ID":49189,"ELEMENT_SET_NO":999,"REV_AT_EPOCH":21753,"BSTAR":-0.00024738,"MEAN_MOTION_DOT":-7.8e-7,"MEAN_MOTION_DDOT":0},{"OBJECT_NAME":"ONEWEB-0320","OBJECT_ID":"2021-083E","EPOCH":"2026-03-07T04:15:45.349344","MEAN_MOTION":13.18134234,"ECCENTRICITY":0.0001828,"INCLINATION":87.9243,"RA_OF_ASC_NODE":355.7259,"ARG_OF_PERICENTER":78.2726,"MEAN_ANOMALY":281.861,"EPHEMERIS_TYPE":0,"CLASSIFICATION_TYPE":"U","NORAD_CAT_ID":49190,"ELEMENT_SET_NO":999,"REV_AT_EPOCH":21653,"BSTAR":0.0003422,"MEAN_MOTION_DOT":1.47e-6,"MEAN_MOTION_DDOT":0}]
